start=new Date('2022-10-05T00:00:00.000Z').valueOf();
sats=[{"EPHEMERIS_TYPE":"0","PERIAPSIS":"537.030","INCLINATION":"53.2188","CLASSIFICATION_TYPE":"U","TLE_LINE2":"2 52556  53.2188 355.4159 0002216  60.7200 299.4014 15.09226964 22333","MEAN_MOTION_DOT":"0.00026482","RCS_SIZE":"LARGE","OBJECT_NAME":"STARLINK-3763","RA_OF_ASC_NODE":"355.4159","REF_FRAME":"TEME","ECCENTRICITY":"0.00022160","APOAPSIS":"540.096","MEAN_ELEMENT_THEORY":"SGP4","CENTER_NAME":"EARTH","ARG_OF_PERICENTER":"60.7200","LAUNCH_DATE":"2022-05-13","FILE":"3591197","OBJECT_ID":"2022-051Z","TLE_LINE1":"1 52556U 22051Z   22277.50016615  .00026482  00000-0  16581-2 0  9992","OBJECT_TYPE":"PAYLOAD","SITE":"AFWTR","REV_AT_EPOCH":"2233","TIME_SYSTEM":"UTC","DECAY_DATE":null,"MEAN_MOTION_DDOT":"0.0000000000000","MEAN_ANOMALY":"299.4014","SEMIMAJOR_AXIS":"6916.698","COUNTRY_CODE":"US","NORAD_CAT_ID":"52556","BSTAR":"0.00165810000000","ELEMENT_SET_NO":"999","PERIOD":"95.413","EPOCH":"2022-10-04T12:00:14.355360","GP_ID":"214161687","MEAN_MOTION":"15.09226964"},{"TLE_LINE1":"1 52557U 22051AA  22277.51511145  .00000594  00000-0  55391-4 0  9992","OBJECT_ID":"2022-051AA","FILE":"3591197","SITE":"AFWTR","OBJECT_TYPE":"PAYLOAD","MEAN_MOTION_DDOT":"0.0000000000000","TIME_SYSTEM":"UTC","DECAY_DATE":null,"REV_AT_EPOCH":"2241","MEAN_ANOMALY":"305.9735","SEMIMAJOR_AXIS":"6917.865","PERIOD":"95.437","ELEMENT_SET_NO":"999","COUNTRY_CODE":"US","BSTAR":"0.00005539100000","NORAD_CAT_ID":"52557","GP_ID":"214161102","EPOCH":"2022-10-04T12:21:45.629280","MEAN_MOTION":"15.08845113","EPHEMERIS_TYPE":"0","CLASSIFICATION_TYPE":"U","PERIAPSIS":"538.568","INCLINATION":"53.2211","RA_OF_ASC_NODE":"350.3475","RCS_SIZE":"LARGE","OBJECT_NAME":"STARLINK-3943","MEAN_MOTION_DOT":"0.00000594","TLE_LINE2":"2 52557  53.2211 350.3475 0001680  54.1413 305.9735 15.08845113 22417","ECCENTRICITY":"0.00016800","REF_FRAME":"TEME","CENTER_NAME":"EARTH","APOAPSIS":"540.892","MEAN_ELEMENT_THEORY":"SGP4","LAUNCH_DATE":"2022-05-13","ARG_OF_PERICENTER":"54.1413"},{"SEMIMAJOR_AXIS":"6917.845","MEAN_ANOMALY":"309.5992","PERIOD":"95.437","COUNTRY_CODE":"US","BSTAR":"0.00010046000000","ELEMENT_SET_NO":"999","NORAD_CAT_ID":"52558","GP_ID":"214161338","EPOCH":"2022-10-04T10:47:41.314272","MEAN_MOTION":"15.08851609","TLE_LINE1":"1 52558U 22051AB  22277.44978373  .00001311  00000-0  10046-3 0  9990","OBJECT_ID":"2022-051AB","FILE":"3591197","SITE":"AFWTR","OBJECT_TYPE":"PAYLOAD","MEAN_MOTION_DDOT":"0.0000000000000","DECAY_DATE":null,"TIME_SYSTEM":"UTC","REV_AT_EPOCH":"2253","CENTER_NAME":"EARTH","MEAN_ELEMENT_THEORY":"SGP4","APOAPSIS":"541.055","LAUNCH_DATE":"2022-05-13","ARG_OF_PERICENTER":"50.5172","EPHEMERIS_TYPE":"0","CLASSIFICATION_TYPE":"U","INCLINATION":"53.2110","PERIAPSIS":"538.364","RA_OF_ASC_NODE":"340.6506","MEAN_MOTION_DOT":"0.00001311","RCS_SIZE":"LARGE","OBJECT_NAME":"STARLINK-3954","TLE_LINE2":"2 52558  53.2110 340.6506 0001945  50.5172 309.5992 15.08851609 22534","ECCENTRICITY":"0.00019450","REF_FRAME":"TEME"},{"GP_ID":"214161354","EPOCH":"2022-10-04T10:38:28.773312","MEAN_MOTION":"15.08861105","SEMIMAJOR_AXIS":"6917.816","MEAN_ANOMALY":"284.5447","COUNTRY_CODE":"US","BSTAR":"0.00024586000000","ELEMENT_SET_NO":"999","NORAD_CAT_ID":"52559","PERIOD":"95.436","OBJECT_TYPE":"PAYLOAD","SITE":"AFWTR","REV_AT_EPOCH":"2253","MEAN_MOTION_DDOT":"0.0000000000000","TIME_SYSTEM":"UTC","DECAY_DATE":null,"FILE":"3591197","TLE_LINE1":"1 52559U 22051AC  22277.44338858  .00003629  00000-0  24586-3 0  9997","OBJECT_ID":"2022-051AC","ARG_OF_PERICENTER":"75.5697","LAUNCH_DATE":"2022-05-13","MEAN_ELEMENT_THEORY":"SGP4","APOAPSIS":"540.624","CENTER_NAME":"EARTH","TLE_LINE2":"2 52559  53.2176 340.6692 0001363  75.5697 284.5447 15.08861105 22535","RA_OF_ASC_NODE":"340.6692","MEAN_MOTION_DOT":"0.00003629","RCS_SIZE":"MEDIUM","OBJECT_NAME":"STARLINK-3953","REF_FRAME":"TEME","ECCENTRICITY":"0.00013630","EPHEMERIS_TYPE":"0","CLASSIFICATION_TYPE":"U","PERIAPSIS":"538.738","INCLINATION":"53.2176"},{"TLE_LINE1":"1 52560U 22051AD  22277.44610646  .00004030  00000-0  27105-3 0  9994","OBJECT_ID":"2022-051AD","FILE":"3591197","MEAN_MOTION_DDOT":"0.0000000000000","DECAY_DATE":null,"TIME_SYSTEM":"UTC","REV_AT_EPOCH":"2253","SITE":"AFWTR","OBJECT_TYPE":"PAYLOAD","PERIOD":"95.437","NORAD_CAT_ID":"52560","COUNTRY_CODE":"US","BSTAR":"0.00027105000000","ELEMENT_SET_NO":"999","MEAN_ANOMALY":"323.7028","SEMIMAJOR_AXIS":"6917.843","MEAN_MOTION":"15.08852321","EPOCH":"2022-10-04T10:42:23.598144","GP_ID":"214161269","CLASSIFICATION_TYPE":"U","INCLINATION":"53.2181","PERIAPSIS":"538.435","EPHEMERIS_TYPE":"0","ECCENTRICITY":"0.00018400","REF_FRAME":"TEME","RA_OF_ASC_NODE":"340.6626","RCS_SIZE":"LARGE","OBJECT_NAME":"STARLINK-3956","MEAN_MOTION_DOT":"0.00004030","TLE_LINE2":"2 52560  53.2181 340.6626 0001840  36.4089 323.7028 15.08852321 22532","CENTER_NAME":"EARTH","APOAPSIS":"540.981","MEAN_ELEMENT_THEORY":"SGP4","LAUNCH_DATE":"2022-05-13","ARG_OF_PERICENTER":"36.4089"},{"PERIOD":"95.437","COUNTRY_CODE":"US","ELEMENT_SET_NO":"999","BSTAR":"0.00021175000000","NORAD_CAT_ID":"52561","MEAN_ANOMALY":"316.6449","SEMIMAJOR_AXIS":"6917.863","MEAN_MOTION":"15.08845631","GP_ID":"214161521","EPOCH":"2022-10-04T11:51:56.852928","TLE_LINE1":"1 52561U 22051AE  22277.49440802  .00003084  00000-0  21175-3 0  9994","OBJECT_ID":"2022-051AE","FILE":"3591197","MEAN_MOTION_DDOT":"0.0000000000000","TIME_SYSTEM":"UTC","DECAY_DATE":null,"REV_AT_EPOCH":"2233","SITE":"AFWTR","OBJECT_TYPE":"PAYLOAD","CENTER_NAME":"EARTH","MEAN_ELEMENT_THEORY":"SGP4","APOAPSIS":"541.103","LAUNCH_DATE":"2022-05-13","ARG_OF_PERICENTER":"43.4700","CLASSIFICATION_TYPE":"U","PERIAPSIS":"538.354","INCLINATION":"53.2166","EPHEMERIS_TYPE":"0","ECCENTRICITY":"0.00019870","REF_FRAME":"TEME","RA_OF_ASC_NODE":"355.4593","OBJECT_NAME":"STARLINK-3955","RCS_SIZE":"LARGE","MEAN_MOTION_DOT":"0.00003084","TLE_LINE2":"2 52561  53.2166 355.4593 0001987  43.4700 316.6449 15.08845631 22335"},{"TLE_LINE2":"2 52562  53.2167 340.3874 0001956  42.0551 318.0591 15.08838715 22549","RA_OF_ASC_NODE":"340.3874","OBJECT_NAME":"STARLINK-3957","RCS_SIZE":"LARGE","MEAN_MOTION_DOT":"0.00001743","REF_FRAME":"TEME","ECCENTRICITY":"0.00019560","EPHEMERIS_TYPE":"0","CLASSIFICATION_TYPE":"U","INCLINATION":"53.2167","PERIAPSIS":"538.396","ARG_OF_PERICENTER":"42.0551","LAUNCH_DATE":"2022-05-13","APOAPSIS":"541.102","MEAN_ELEMENT_THEORY":"SGP4","CENTER_NAME":"EARTH","OBJECT_TYPE":"PAYLOAD","SITE":"AFWTR","REV_AT_EPOCH":"2254","MEAN_MOTION_DDOT":"0.0000000000000","DECAY_DATE":null,"TIME_SYSTEM":"UTC","FILE":"3591197","TLE_LINE1":"1 52562U 22051AF  22277.50499454  .00001743  00000-0  12761-3 0  9995","OBJECT_ID":"2022-051AF","GP_ID":"214160920","EPOCH":"2022-10-04T12:07:11.528256","MEAN_MOTION":"15.08838715","MEAN_ANOMALY":"318.0591","SEMIMAJOR_AXIS":"6917.884","NORAD_CAT_ID":"52562","COUNTRY_CODE":"US","BSTAR":"0.00012761000000","ELEMENT_SET_NO":"999","PERIOD":"95.438"},{"GP_ID":"214160936","EPOCH":"2022-10-04T11:57:14.586336","MEAN_MOTION":"15.08844005","SEMIMAJOR_AXIS":"6917.868","MEAN_ANOMALY":"308.2539","PERIOD":"95.437","COUNTRY_CODE":"US","NORAD_CAT_ID":"52563","BSTAR":"0.00001688300000","ELEMENT_SET_NO":"999","SITE":"AFWTR","OBJECT_TYPE":"PAYLOAD","MEAN_MOTION_DDOT":"0.0000000000000","DECAY_DATE":null,"TIME_SYSTEM":"UTC","REV_AT_EPOCH":"2233","TLE_LINE1":"1 52563U 22051AG  22277.49808549 -.00000019  00000-0  16883-4 0  9999","OBJECT_ID":"2022-051AG","FILE":"3591197","LAUNCH_DATE":"2022-05-13","ARG_OF_PERICENTER":"51.8613","CENTER_NAME":"EARTH","APOAPSIS":"540.963","MEAN_ELEMENT_THEORY":"SGP4","RA_OF_ASC_NODE":"355.4381","MEAN_MOTION_DOT":"-0.00000019","RCS_SIZE":"LARGE","OBJECT_NAME":"STARLINK-3942","TLE_LINE2":"2 52563  53.2176 355.4381 0001778  51.8613 308.2539 15.08844005 22338","ECCENTRICITY":"0.00017780","REF_FRAME":"TEME","EPHEMERIS_TYPE":"0","CLASSIFICATION_TYPE":"U","PERIAPSIS":"538.503","INCLINATION":"53.2176"},{"ECCENTRICITY":"0.00017590","REF_FRAME":"TEME","RA_OF_ASC_NODE":"355.4736","RCS_SIZE":"LARGE","MEAN_MOTION_DOT":"0.00006192","OBJECT_NAME":"STARLINK-3959","TLE_LINE2":"2 52564  53.2179 355.4736 0001759  46.6084 313.5055 15.08854819 22335","CLASSIFICATION_TYPE":"U","PERIAPSIS":"538.483","INCLINATION":"53.2179","EPHEMERIS_TYPE":"0","LAUNCH_DATE":"2022-05-13","ARG_OF_PERICENTER":"46.6084","CENTER_NAME":"EARTH","MEAN_ELEMENT_THEORY":"SGP4","APOAPSIS":"540.917","MEAN_MOTION_DDOT":"0.0000000000000","TIME_SYSTEM":"UTC","DECAY_DATE":null,"REV_AT_EPOCH":"2233","SITE":"AFWTR","OBJECT_TYPE":"PAYLOAD","TLE_LINE1":"1 52564U 22051AH  22277.49072954  .00006192  00000-0  40666-3 0  9995","OBJECT_ID":"2022-051AH","FILE":"3591197","MEAN_MOTION":"15.08854819","EPOCH":"2022-10-04T11:46:39.032256","GP_ID":"214161688","PERIOD":"95.437","ELEMENT_SET_NO":"999","COUNTRY_CODE":"US","BSTAR":"0.00040666000000","NORAD_CAT_ID":"52564","MEAN_ANOMALY":"313.5055","SEMIMAJOR_AXIS":"6917.835"},{"RA_OF_ASC_NODE":"340.6730","MEAN_MOTION_DOT":"0.00001248","RCS_SIZE":"LARGE","OBJECT_NAME":"STARLINK-3911","TLE_LINE2":"2 52565  53.2199 340.6730 0001821  56.2617 303.8548 15.08838797 22535","ECCENTRICITY":"0.00018210","REF_FRAME":"TEME","EPHEMERIS_TYPE":"0","CLASSIFICATION_TYPE":"U","INCLINATION":"53.2199","PERIAPSIS":"538.489","LAUNCH_DATE":"2022-05-13","ARG_OF_PERICENTER":"56.2617","CENTER_NAME":"EARTH","APOAPSIS":"541.009","MEAN_ELEMENT_THEORY":"SGP4","SITE":"AFWTR","OBJECT_TYPE":"PAYLOAD","MEAN_MOTION_DDOT":"0.0000000000000","TIME_SYSTEM":"UTC","DECAY_DATE":null,"REV_AT_EPOCH":"2253","TLE_LINE1":"1 52565U 22051AJ  22277.44243144  .00001248  00000-0  96528-4 0  9998","OBJECT_ID":"2022-051AJ","FILE":"3591197","EPOCH":"2022-10-04T10:37:06.076416","GP_ID":"214161103","MEAN_MOTION":"15.08838797","MEAN_ANOMALY":"303.8548","SEMIMAJOR_AXIS":"6917.884","PERIOD":"95.438","NORAD_CAT_ID":"52565","COUNTRY_CODE":"US","BSTAR":"0.00009652800000","ELEMENT_SET_NO":"999"}];
